NPORSAT
1 42828U 17042D   24103.02141090  .00006511  00000+0  36969-3 0  9995
2 42828  97.3871  19.1886 0012965 119.3082 240.9447 15.13185752437643